SL-14 R/B               
1 20466U 90010B   26060.86307816  .00000481  00000+0  55350-4 0  9995
2 20466  82.4993 274.7424 0019036 329.6298  30.3813 14.83561019927322
SL-14 R/B               
1 20511U 90018B   26060.53582528  .00000611  00000+0  73610-4 0  9997
2 20511  82.5190 230.7117 0017558 116.7542 243.5471 14.82134195921375
HST                     
1 20580U 90037B   26060.39460694  .00008629  00000+0  28681-3 0  9991
2 20580  28.4699  96.5806 0001584  41.9765 318.0951 15.29328400772040
SL-16 R/B               
1 20625U 90046B   26060.85040685 -.00000150  00000+0 -52715-4 0  9995
2 20625  71.0005 314.3784 0016071 310.1899  49.7816 14.15014986847289
COSMOS 2084             
1 20663U 90055A   26060.81849153  .00003383  00000+0  24661-3 0  9997
2 20663  62.7921   2.4212 0018213 188.1686 171.9120 15.05591880935134
SL-6 R/B(2)             
1 20666U 90055D   26060.85690498  .00002302  00000+0  18142-3 0  9997
2 20666  62.7821 280.4880 0023523 345.0541  14.9860 15.03550401937017
SL-8 R/B                
1 20775U 90078B   26060.57843769  .00016351  00000+0  48020-3 0  9990
2 20775  82.8995 258.6057 0364180  41.2322 321.5795 14.88746040808092
SL-8 R/B                
1 21088U 91006B   26060.86367256  .00000044  00000+0  28210-4 0  9996
2 21088  82.9463 175.8634 0023476  59.4326  58.4915 13.77493201762990
OKEAN-3                 
1 21397U 91039A   26060.83236344  .00003737  00000+0  26283-3 0  9994
2 21397  82.5201 344.4534 0014427   6.0249 354.1149 15.04737753863857
COSMOS 2151             
1 21422U 91042A   26060.81220767  .00002016  00000+0  15944-3 0  9998
2 21422  82.4932  91.2769 0014148  87.1188 273.1655 15.00068239862016
SL-14 R/B               
1 21423U 91042B   26060.51956803  .00000573  00000+0  69554-4 0  9996
2 21423  82.4909 227.8443 0015566 267.8896  92.0536 14.81819589851862
ERS-1                   
1 21574U 91050A   26060.63403453  .00000378  00000+0  13559-3 0  9999
2 21574  98.7887  78.6661 0031202 224.7269 135.1401 14.39441961814574
ARIANE 40 R/B           
1 21610U 91050F   26060.70414960  .00000341  00000+0  11448-3 0  9998
2 21610  98.2030 113.2398 0004389  98.4973 261.6715 14.42886685817843
INTERCOSMOS 25          
1 21819U 91086A   26060.81488509  .00001633  00000+0  31356-3 0  9995
2 21819  82.6067 314.7672 1487081 133.8975 239.5023 12.11974182495735
SL-8 R/B                
1 21876U 92008B   26060.85830919  .00000008  00000+0 -78935-5 0  9995
2 21876  82.9229 273.6054 0035170 154.6813 216.6383 13.75969852708345
SL-8 R/B                
1 21938U 92020B   26060.77473090  .00000075  00000+0  62064-4 0  9990
2 21938  82.9341 159.6364 0027977 321.8144 154.1826 13.75548406700042
USA 81                  
1 21949U 92023A   26060.69501705  .00000195  00000+0  64694-4 0  9995
2 21949  85.0100 136.0526 0002675  84.2846 275.8652 14.32364760 93649
COSMOS 2219             
1 22219U 92076A   26060.38611647  .00000351  00000+0  20866-3 0  9993
2 22219  71.0611  35.4251 0019415 218.1159 141.8591 14.14087532717202
SL-16 R/B               
1 22220U 92076B   26060.87049572  .00000160  00000+0  10380-3 0  9999
2 22220  70.9996 204.8431 0010707 110.6991   3.9166 14.16859396720729
COSMOS 2221             
1 22236U 92080A   26060.67881047  .00001978  00000+0  17310-3 0  9998
2 22236  82.5021 286.7555 0013334 215.4071 144.6267 14.96164925779591
SL-16 R/B               
1 22285U 92093B   26060.32975809 -.00000064  00000+0 -82513-5 0  9994
2 22285  71.0235  21.8141 0006200 302.6562  57.3963 14.15449751711977
COSMOS 2228             
1 22286U 92094A   26060.76729348  .00002622  00000+0  22421-3 0  9999
2 22286  82.5144 244.8975 0017304 332.8963  27.1354 14.97142566774874
SL-16 R/B               
1 22566U 93016B   26060.79341558  .00000338  00000+0  19784-3 0  9991
2 22566  71.0054 231.7660 0011238 325.3138  34.7251 14.15303856701056
COSMOS 2242             
1 22626U 93024A   26060.67922868  .00002151  00000+0  18670-3 0  9991
2 22626  82.5159 274.3803 0015796 337.5468  22.5061 14.96510708779191
SL-16 R/B               
1 22803U 93059B   26060.36006465  .00000175  00000+0  11042-3 0  9998
2 22803  70.9914  28.6906 0018874 228.1805 131.7708 14.17231508678350
ARIANE 40 R/B           
1 22830U 93061H   26060.80771693  .00000240  00000+0  10378-3 0  9996
2 22830  98.4934 129.8504 0009691 311.1917  48.8431 14.32856086692975
COSMOS 2278             
1 23087U 94023A   26060.81810741  .00000352  00000+0  20829-3 0  9995
2 23087  71.0538 191.5641 0007586  29.3056 330.8491 14.14374158643698
SL-16 R/B               
1 23088U 94023B   26060.79742513 -.00000046  00000+0  77363-6 0  9993
2 23088  70.9986  87.4630 0005533 293.2536  66.8004 14.15013477644973
SL-16 R/B               
1 23343U 94074B   26060.83336012  .00000576  00000+0  83906-4 0  9996
2 23343  97.7120  91.9690 0005280 240.8008 292.2257 14.79397158686085
SL-16 R/B               
1 23405U 94077B   26060.85277595 -.00000244  00000+0 -10007-3 0  9995
2 23405  70.9849   8.9747 0003519 222.3239 137.7612 14.15562881615122
ARIANE 40+ R/B          
1 23561U 95021B   26060.83509659  .00000332  00000+0  11988-3 0  9990
2 23561  98.4514 132.4236 0007313 157.3320 317.1257 14.39765689618117
